[{"OBJECT_NAME":"TECHDEMOSAT-1 (TDS-1)","OBJECT_ID":"2014-037H","EPOCH":"2026-03-09T22:08:12.399936","MEAN_MOTION":15.11581991,"ECCENTRICITY":0.0004745,"INCLINATION":98.3776,"RA_OF_ASC_NODE":51.4583,"ARG_OF_PERICENTER":234.81,"MEAN_ANOMALY":125.2683,"EPHEMERIS_TYPE":0,"CLASSIFICATION_TYPE":"U","NORAD_CAT_ID":40076,"ELEMENT_SET_NO":999,"REV_AT_EPOCH":63322,"BSTAR":0.00065800271,"MEAN_MOTION_DOT":0.00011104,"MEAN_MOTION_DDOT":0},{"OBJECT_NAME":"STARLINK-5122","OBJECT_ID":"2022-141Y","EPOCH":"2026-03-09T04:33:20.451456","MEAN_MOTION":15.08832639,"ECCENTRICITY":0.00014858,"INCLINATION":53.2185,"RA_OF_ASC_NODE":6.2525,"ARG_OF_PERICENTER":100.9333,"MEAN_ANOMALY":259.1826,"EPHEMERIS_TYPE":0,"CLASSIFICATION_TYPE":"U","NORAD_CAT_ID":54179,"ELEMENT_SET_NO":999,"REV_AT_EPOCH":18578,"BSTAR":-0.00011632371,"MEAN_MOTION_DOT":-2.138e-5,"MEAN_MOTION_DDOT":0}]
